{"type":"FeatureCollection","features":[{"type":"Feature","geometry":{"type":"Point","coordinates":[33.783003,41.389002]},"properties":{"name":"Kastamonu","adm0name":"Turkey","adm1name":"Kastamonu","pop":70402}},{"type":"Feature","geometry":{"type":"Point","coordinates":[34.171003,39.141999]},"properties":{"name":"K\u0131r\u015fehir","adm0name":"Turkey","adm1name":"Kirsehir","pop":94336}},{"type":"Feature","geometry":{"type":"Point","coordinates":[34.723999,38.624004]},"properties":{"name":"Nev\u015fehir","adm0name":"Turkey","adm1name":"Nevsehir","pop":75527}},{"type":"Feature","geometry":{"type":"Point","coordinates":[36.116677,36.233334]},"properties":{"name":"Antakya","adm0name":"Turkey","adm1name":"Hatay","pop":154803}},{"type":"Feature","geometry":{"type":"Point","coordinates":[38.390005,40.913001]},"properties":{"name":"Giresun","adm0name":"Turkey","adm1name":"Giresun","pop":98864}},{"type":"Feature","geometry":{"type":"Point","coordinates":[35.153002,42.022998]},"properties":{"name":"Sinop","adm0name":"Turkey","adm1name":"Sinop","pop":34834}},{"type":"Feature","geometry":{"type":"Point","coordinates":[36.563004,40.305996]},"properties":{"name":"Tokat","adm0name":"Turkey","adm1name":"Tokat","pop":129702}},{"type":"Feature","geometry":{"type":"Point","coordinates":[41.817996,41.183001]},"properties":{"name":"Artvin","adm0name":"Turkey","adm1name":"Artvin","pop":32272}},{"type":"Feature","geometry":{"type":"Point","coordinates":[40.498003,38.885004]},"properties":{"name":"Bing\u00f6l","adm0name":"Turkey","adm1name":"Bing\u00f6l","pop":80568}},{"type":"Feature","geometry":{"type":"Point","coordinates":[42.122998,38.394]},"properties":{"name":"Bitlis","adm0name":"Turkey","adm1name":"Bitlis","pop":62811}},{"type":"Feature","geometry":{"type":"Point","coordinates":[33.621004,40.607001]},"properties":{"name":"\u00c7ank\u0131r\u0131","adm0name":"Turkey","adm1name":"\u00c7ankiri","pop":71379}},{"type":"Feature","geometry":{"type":"Point","coordinates":[34.694002,37.976004]},"properties":{"name":"Ni\u011fde","adm0name":"Turkey","adm1name":"Nigde","pop":91039}},{"type":"Feature","geometry":{"type":"Point","coordinates":[34.814997,39.817998]},"properties":{"name":"Yozgat","adm0name":"Turkey","adm1name":"Yozgat","pop":87881}},{"type":"Feature","geometry":{"type":"Point","coordinates":[39.484,40.464]},"properties":{"name":"G\u00fcm\u00fc\u015fhane","adm0name":"Turkey","adm1name":"G\u00fcm\u00fcshane","pop":32250}},{"type":"Feature","geometry":{"type":"Point","coordinates":[41.932999,37.944]},"properties":{"name":"Siirt","adm0name":"Turkey","adm1name":"Siirt","pop":114034}},{"type":"Feature","geometry":{"type":"Point","coordinates":[39.533302,39.1167]},"properties":{"name":"Tunceli","adm0name":"Turkey","adm1name":"Tunceli","pop":29062}},{"type":"Feature","geometry":{"type":"Point","coordinates":[36.105004,32.625]},"properties":{"name":"Dar'a","adm0name":"Syria","adm1name":"Dar`a","pop":146481}},{"type":"Feature","geometry":{"type":"Point","coordinates":[37.333297,31.333302]},"properties":{"name":"An Nabk","adm0name":"Saudi Arabia","adm1name":"Al Jawf","pop":10000}},{"type":"Feature","geometry":{"type":"Point","coordinates":[36.233298,32.283297]},"properties":{"name":"Al Mafraq","adm0name":"Jordan","adm1name":"Mafraq","pop":57118}},{"type":"Feature","geometry":{"type":"Point","coordinates":[35.600005,30.833334]},"properties":{"name":"At Tafilah","adm0name":"Jordan","adm1name":"Tafilah","pop":25429}},{"type":"Feature","geometry":{"type":"Point","coordinates":[35.736004,30.192003]},"properties":{"name":"Ma'an","adm0name":"Jordan","adm1name":"Ma`an","pop":50350}},{"type":"Feature","geometry":{"type":"Point","coordinates":[47.999998,29.33334]},"properties":{"name":"Hawalli","adm0name":"Kuwait","adm1name":"Hawalli","pop":164212}},{"type":"Feature","geometry":{"type":"Point","coordinates":[35.533296,33.833304]},"properties":{"name":"B'abda","adm0name":"Lebanon","adm1name":"Mount Lebanon","pop":9000}},{"type":"Feature","geometry":{"type":"Point","coordinates":[34.866703,31.9167]},"properties":{"name":"Ramla","adm0name":"Israel","adm1name":"HaMerkaz","pop":63860}},{"type":"Feature","geometry":{"type":"Point","coordinates":[35.450002,33.383304]},"properties":{"name":"Nabatiye et Tahta","adm0name":"Lebanon","adm1name":"An Nabatiyah","pop":80000}},{"type":"Feature","geometry":{"type":"Point","coordinates":[44.359167,40.301667]},"properties":{"name":"Ashtarak","adm0name":"Armenia","adm1name":"Aragatsotn","pop":18779}},{"type":"Feature","geometry":{"type":"Point","coordinates":[45.149167,40.875556]},"properties":{"name":"Ijevan","adm0name":"Armenia","adm1name":"Tavush","pop":14737}},{"type":"Feature","geometry":{"type":"Point","coordinates":[44.550556,39.953889]},"properties":{"name":"Artashat","adm0name":"Armenia","adm1name":"Ararat","pop":20562}},{"type":"Feature","geometry":{"type":"Point","coordinates":[45.126667,40.358889]},"properties":{"name":"Gavarr","adm0name":"Armenia","adm1name":"Gegharkunik","pop":21680}},{"type":"Feature","geometry":{"type":"Point","coordinates":[45.816111,40.565556]},"properties":{"name":"Gadabay","adm0name":"Azerbaijan","adm1name":"G?d?b?y","pop":8657}},{"type":"Feature","geometry":{"type":"Point","coordinates":[46.789722,40.610278]},"properties":{"name":"Goranboy","adm0name":"Azerbaijan","adm1name":"Goranboy","pop":7333}},{"type":"Feature","geometry":{"type":"Point","coordinates":[45.628889,40.992222]},"properties":{"name":"Tovuz","adm0name":"Azerbaijan","adm1name":"Tovuz","pop":12626}},{"type":"Feature","geometry":{"type":"Point","coordinates":[45.556389,40.905278]},"properties":{"name":"Agdam","adm0name":"Azerbaijan","adm1name":"Tovuz","pop":0}},{"type":"Feature","geometry":{"type":"Point","coordinates":[47.845833,40.981389]},"properties":{"name":"Qabala","adm0name":"Azerbaijan","adm1name":"Q?b?l?","pop":11867}},{"type":"Feature","geometry":{"type":"Point","coordinates":[47.458333,41.070833]},"properties":{"name":"O\u011fuz","adm0name":"Azerbaijan","adm1name":"Oguz","pop":6876}},{"type":"Feature","geometry":{"type":"Point","coordinates":[45.333333,39.761111]},"properties":{"name":"Yeghegnadzor","adm0name":"Armenia","adm1name":"Vayots Dzor","pop":8200}},{"type":"Feature","geometry":{"type":"Point","coordinates":[33.635998,34.917003]},"properties":{"name":"Larnaka","adm0name":"Cyprus","adm1name":"Larnaca","pop":48947}},{"type":"Feature","geometry":{"type":"Point","coordinates":[35.206209,31.902945]},"properties":{"name":"Ramallah","adm0name":"Palestine","adm1name":null,"pop":24599}},{"type":"Feature","geometry":{"type":"Point","coordinates":[33.333004,35.325999]},"properties":{"name":"Kyrenia","adm0name":"Northern Cyprus","adm1name":null,"pop":26701}},{"type":"Feature","geometry":{"type":"Point","coordinates":[40.133305,29.999997]},"properties":{"name":"Sakakah","adm0name":"Saudi Arabia","adm1name":"Al Jawf","pop":128332}},{"type":"Feature","geometry":{"type":"Point","coordinates":[43.000003,36.8667]},"properties":{"name":"Duhok","adm0name":"Iraq","adm1name":"Dihok","pop":986000}},{"type":"Feature","geometry":{"type":"Point","coordinates":[43.875001,34.193997]},"properties":{"name":"Samarra","adm0name":"Iraq","adm1name":"Sala ad-Din","pop":158508}},{"type":"Feature","geometry":{"type":"Point","coordinates":[51.594004,30.659004]},"properties":{"name":"Yasuj","adm0name":"Iran","adm1name":"Kohgiluyeh and Buyer Ahmad","pop":96786}},{"type":"Feature","geometry":{"type":"Point","coordinates":[50.853997,32.320998]},"properties":{"name":"Shahrekord","adm0name":"Iran","adm1name":"Chahar Mahall and Bakhtiari","pop":129153}},{"type":"Feature","geometry":{"type":"Point","coordinates":[35.779976,35.539987]},"properties":{"name":"Latakia","adm0name":"Syria","adm1name":"Lattakia (Al Ladhiqiyah)","pop":539147}},{"type":"Feature","geometry":{"type":"Point","coordinates":[38.548076,35.836661]},"properties":{"name":"Madinat ath Thawrah","adm0name":"Syria","adm1name":"Ar Raqqah","pop":87880}},{"type":"Feature","geometry":{"type":"Point","coordinates":[37.044085,36.588786]},"properties":{"name":"Izaz","adm0name":"Syria","adm1name":"Aleppo (Halab)","pop":31534}},{"type":"Feature","geometry":{"type":"Point","coordinates":[37.956329,36.526645]},"properties":{"name":"Manbij","adm0name":"Syria","adm1name":"Aleppo (Halab)","pop":120169}},{"type":"Feature","geometry":{"type":"Point","coordinates":[36.631655,35.929705]},"properties":{"name":"Idlib","adm0name":"Syria","adm1name":"Idlib","pop":128840}},{"type":"Feature","geometry":{"type":"Point","coordinates":[41.229979,37.030025]},"properties":{"name":"Al Qamishli","adm0name":"Syria","adm1name":"Hasaka (Al Haksa)","pop":104107}},{"type":"Feature","geometry":{"type":"Point","coordinates":[40.750008,36.483289]},"properties":{"name":"Al Hasakah","adm0name":"Syria","adm1name":"Hasaka (Al Haksa)","pop":128100}},{"type":"Feature","geometry":{"type":"Point","coordinates":[36.39999,33.583336]},"properties":{"name":"Douma","adm0name":"Syria","adm1name":"Damascus","pop":496145}},{"type":"Feature","geometry":{"type":"Point","coordinates":[55.553343,25.565273]},"properties":{"name":"Umm al Qaywayn","adm0name":"United Arab Emirates","adm1name":"Umm Al Qaywayn","pop":44411}},{"type":"Feature","geometry":{"type":"Point","coordinates":[55.406478,25.371383]},"properties":{"name":"Sharjah","adm0name":"United Arab Emirates","adm1name":"Sharjah","pop":1103027}},{"type":"Feature","geometry":{"type":"Point","coordinates":[53.122591,39.436155]},"properties":{"name":"Celeken","adm0name":"Turkmenistan","adm1name":"Balkan","pop":1206}},{"type":"Feature","geometry":{"type":"Point","coordinates":[39.229998,38.679976]},"properties":{"name":"El\u00e2z\u0131\u011f","adm0name":"Turkey","adm1name":"Elazig","pop":271492}},{"type":"Feature","geometry":{"type":"Point","coordinates":[36.945021,37.60999]},"properties":{"name":"Kahramanmara\u015f","adm0name":"Turkey","adm1name":"K. Maras","pop":376045}},{"type":"Feature","geometry":{"type":"Point","coordinates":[34.619995,36.799988]},"properties":{"name":"Icel","adm0name":"Turkey","adm1name":"Mersin","pop":616990}},{"type":"Feature","geometry":{"type":"Point","coordinates":[34.950001,40.519993]},"properties":{"name":"Corum","adm0name":"Turkey","adm1name":"\u00c7orum","pop":183418}},{"type":"Feature","geometry":{"type":"Point","coordinates":[40.521857,41.020841]},"properties":{"name":"Rize","adm0name":"Turkey","adm1name":"Rize","pop":279450}},{"type":"Feature","geometry":{"type":"Point","coordinates":[42.281595,38.506576]},"properties":{"name":"Tatvan","adm0name":"Turkey","adm1name":"Bitlis","pop":73222}},{"type":"Feature","geometry":{"type":"Point","coordinates":[41.218352,37.074984]},"properties":{"name":"Nusaybin","adm0name":"Turkey","adm1name":"Mardin","pop":152668}},{"type":"Feature","geometry":{"type":"Point","coordinates":[43.740834,37.574436]},"properties":{"name":"Hakk\u00e2ri","adm0name":"Turkey","adm1name":"Hakkari","pop":77699}},{"type":"Feature","geometry":{"type":"Point","coordinates":[38.049295,24.094277]},"properties":{"name":"Yanbu al Bahr","adm0name":"Saudi Arabia","adm1name":"Al Madinah","pop":267590}},{"type":"Feature","geometry":{"type":"Point","coordinates":[39.866393,29.815298]},"properties":{"name":"Dawmat al Jandal","adm0name":"Saudi Arabia","adm1name":"Al Jawf","pop":22583}},{"type":"Feature","geometry":{"type":"Point","coordinates":[45.280636,24.07371]},"properties":{"name":"Al Quwayiyah","adm0name":"Saudi Arabia","adm1name":"Ar Riyad","pop":8712}},{"type":"Feature","geometry":{"type":"Point","coordinates":[49.565905,25.429054]},"properties":{"name":"Al Mubarraz","adm0name":"Saudi Arabia","adm1name":"Ash Sharqiyah","pop":298562}},{"type":"Feature","geometry":{"type":"Point","coordinates":[50.01151,26.519633]},"properties":{"name":"Al-Qatif","adm0name":"Saudi Arabia","adm1name":"Ash Sharqiyah","pop":368892}},{"type":"Feature","geometry":{"type":"Point","coordinates":[50.158323,26.29143]},"properties":{"name":"Az Zahran","adm0name":"Saudi Arabia","adm1name":"Ash Sharqiyah","pop":97446}},{"type":"Feature","geometry":{"type":"Point","coordinates":[48.083773,29.076945]},"properties":{"name":"Al Ahmadi","adm0name":"Kuwait","adm1name":"Al Ahmadi","pop":68763}},{"type":"Feature","geometry":{"type":"Point","coordinates":[47.658062,29.337471]},"properties":{"name":"Al Jahra","adm0name":"Kuwait","adm1name":"Al Jahrah","pop":194193}},{"type":"Feature","geometry":{"type":"Point","coordinates":[35.368787,33.563028]},"properties":{"name":"Saida","adm0name":"Lebanon","adm1name":"South Lebanon","pop":173894}},{"type":"Feature","geometry":{"type":"Point","coordinates":[35.849998,32.549989]},"properties":{"name":"Irbid","adm0name":"Jordan","adm1name":"Irbid","pop":650000}},{"type":"Feature","geometry":{"type":"Point","coordinates":[35.727214,32.039193]},"properties":{"name":"As Salt","adm0name":"Jordan","adm1name":"Balqa","pop":140689}},{"type":"Feature","geometry":{"type":"Point","coordinates":[36.100008,32.069992]},"properties":{"name":"Az Zarqa","adm0name":"Jordan","adm1name":"Zarqa","pop":894691}},{"type":"Feature","geometry":{"type":"Point","coordinates":[42.729991,42.249991]},"properties":{"name":"Kutaisi","adm0name":"Georgia","adm1name":"Imereti","pop":183945}},{"type":"Feature","geometry":{"type":"Point","coordinates":[43.975031,42.232498]},"properties":{"name":"Tskhinvali","adm0name":"Georgia","adm1name":"Shida Kartli","pop":38502}},{"type":"Feature","geometry":{"type":"Point","coordinates":[34.830008,31.250016]},"properties":{"name":"Beer Sheva","adm0name":"Israel","adm1name":"HaDarom","pop":206408}},{"type":"Feature","geometry":{"type":"Point","coordinates":[52.821468,29.801448]},"properties":{"name":"Marv Dasht","adm0name":"Iran","adm1name":"Fars","pop":125000}},{"type":"Feature","geometry":{"type":"Point","coordinates":[54.962888,36.422879]},"properties":{"name":"Shahrud","adm0name":"Iran","adm1name":"Semnan","pop":131889}},{"type":"Feature","geometry":{"type":"Point","coordinates":[51.646604,35.31659]},"properties":{"name":"Varamin","adm0name":"Iran","adm1name":"Tehran","pop":179603}},{"type":"Feature","geometry":{"type":"Point","coordinates":[49.299926,31.979998]},"properties":{"name":"Masjed Soleyman","adm0name":"Iran","adm1name":"Khuzestan","pop":153663}},{"type":"Feature","geometry":{"type":"Point","coordinates":[48.800008,33.919957]},"properties":{"name":"Borujerd","adm0name":"Iran","adm1name":"Lorestan","pop":251958}},{"type":"Feature","geometry":{"type":"Point","coordinates":[47.707982,30.389164]},"properties":{"name":"Az Aubayr","adm0name":"Iraq","adm1name":"Al-Basrah","pop":262219}},{"type":"Feature","geometry":{"type":"Point","coordinates":[44.923966,31.988938]},"properties":{"name":"Ad Diwaniyah","adm0name":"Iraq","adm1name":"Al-Qadisiyah","pop":358408}},{"type":"Feature","geometry":{"type":"Point","coordinates":[46.177222,31.417525]},"properties":{"name":"Ash Shatrah","adm0name":"Iraq","adm1name":"Dhi-Qar","pop":161949}},{"type":"Feature","geometry":{"type":"Point","coordinates":[48.849979,34.319984]},"properties":{"name":"Malayer","adm0name":"Iran","adm1name":"Hamadan","pop":176573}},{"type":"Feature","geometry":{"type":"Point","coordinates":[48.500026,36.670021]},"properties":{"name":"Zanjan","adm0name":"Iran","adm1name":"Zanjan","pop":357471}},{"type":"Feature","geometry":{"type":"Point","coordinates":[44.999982,37.529995]},"properties":{"name":"Urmia","adm0name":"Iran","adm1name":"West Azarbaijan","pop":577307}},{"type":"Feature","geometry":{"type":"Point","coordinates":[47.062905,38.482908]},"properties":{"name":"Ahar","adm0name":"Iran","adm1name":"East Azarbaijan","pop":103639}},{"type":"Feature","geometry":{"type":"Point","coordinates":[47.020013,35.300002]},"properties":{"name":"Sanandaj","adm0name":"Iran","adm1name":"Kordestan","pop":349176}},{"type":"Feature","geometry":{"type":"Point","coordinates":[45.546357,33.743611]},"properties":{"name":"Mandali","adm0name":"Iraq","adm1name":"Diyala","pop":29785}},{"type":"Feature","geometry":{"type":"Point","coordinates":[55.730024,29.46997]},"properties":{"name":"Sirjan","adm0name":"Iran","adm1name":"Kerman","pop":175000}},{"type":"Feature","geometry":{"type":"Point","coordinates":[43.299982,33.420013]},"properties":{"name":"Ar Ramadi","adm0name":"Iraq","adm1name":"Al-Anbar","pop":295121}},{"type":"Feature","geometry":{"type":"Point","coordinates":[44.289999,32.778631]},"properties":{"name":"Al Musayyib","adm0name":"Iraq","adm1name":"Babil","pop":76454}},{"type":"Feature","geometry":{"type":"Point","coordinates":[43.847494,40.789434]},"properties":{"name":"Gyumri","adm0name":"Armenia","adm1name":"Shirak","pop":148381}},{"type":"Feature","geometry":{"type":"Point","coordinates":[44.488282,40.812766]},"properties":{"name":"Vanadzor","adm0name":"Armenia","adm1name":"Lori","pop":101098}},{"type":"Feature","geometry":{"type":"Point","coordinates":[46.350028,40.684996]},"properties":{"name":"Ganca","adm0name":"Azerbaijan","adm1name":"G?nc?","pop":303268}},{"type":"Feature","geometry":{"type":"Point","coordinates":[47.150031,40.617196]},"properties":{"name":"Yevlax","adm0name":"Azerbaijan","adm1name":"Yevlax","pop":53716}},{"type":"Feature","geometry":{"type":"Point","coordinates":[49.629983,40.580015]},"properties":{"name":"Sumqayt","adm0name":"Azerbaijan","adm1name":"Sumqayit","pop":279159}},{"type":"Feature","geometry":{"type":"Point","coordinates":[55.01074,24.976239]},"properties":{"name":"Jabal Ali","adm0name":"United Arab Emirates","adm1name":"Dubay","pop":80000}},{"type":"Feature","geometry":{"type":"Point","coordinates":[35.095573,31.540593]},"properties":{"name":"Al Khalil","adm0name":"Palestine","adm1name":null,"pop":280321}},{"type":"Feature","geometry":{"type":"Point","coordinates":[33.95001,35.125025]},"properties":{"name":"Famagusta","adm0name":"Northern Cyprus","adm1name":null,"pop":42526}},{"type":"Feature","geometry":{"type":"Point","coordinates":[35.886584,34.884634]},"properties":{"name":"Tartus","adm0name":"Syria","adm1name":"Tartus","pop":162980}},{"type":"Feature","geometry":{"type":"Point","coordinates":[39.019985,35.930377]},"properties":{"name":"Ar Raqqah","adm0name":"Syria","adm1name":"Ar Raqqah","pop":177636}},{"type":"Feature","geometry":{"type":"Point","coordinates":[36.729996,35.150347]},"properties":{"name":"Hamah","adm0name":"Syria","adm1name":"Hamah","pop":460602}},{"type":"Feature","geometry":{"type":"Point","coordinates":[38.283337,34.550409]},"properties":{"name":"Tadmur","adm0name":"Syria","adm1name":"Homs (Hims)","pop":55111}},{"type":"Feature","geometry":{"type":"Point","coordinates":[40.918629,34.450415]},"properties":{"name":"Abu Kamal","adm0name":"Syria","adm1name":"Dayr Az Zawr","pop":80808}},{"type":"Feature","geometry":{"type":"Point","coordinates":[40.129995,35.330387]},"properties":{"name":"Dayr az Zawr","adm0name":"Syria","adm1name":"Dayr Az Zawr","pop":309141}},{"type":"Feature","geometry":{"type":"Point","coordinates":[36.566595,32.700419]},"properties":{"name":"As Suwayda","adm0name":"Syria","adm1name":"As Suwayda'","pop":72248}},{"type":"Feature","geometry":{"type":"Point","coordinates":[36.733303,34.017031]},"properties":{"name":"Ad Nabk","adm0name":"Syria","adm1name":"Damascus","pop":50178}},{"type":"Feature","geometry":{"type":"Point","coordinates":[55.942776,25.791538]},"properties":{"name":"Ras al Khaymah","adm0name":"United Arab Emirates","adm1name":"Ras Al Khaymah","pop":160849}},{"type":"Feature","geometry":{"type":"Point","coordinates":[55.739998,24.230471]},"properties":{"name":"Al Ayn","adm0name":"United Arab Emirates","adm1name":"Abu Dhabi","pop":408733}},{"type":"Feature","geometry":{"type":"Point","coordinates":[54.36494,39.51238]},"properties":{"name":"Balkanabat","adm0name":"Turkmenistan","adm1name":"Balkan","pop":110827}},{"type":"Feature","geometry":{"type":"Point","coordinates":[38.279927,37.770393]},"properties":{"name":"Ad\u0131yaman","adm0name":"Turkey","adm1name":"Adiyaman","pop":223744}},{"type":"Feature","geometry":{"type":"Point","coordinates":[38.300029,38.370434]},"properties":{"name":"Malatya","adm0name":"Turkey","adm1name":"Malatya","pop":461574}},{"type":"Feature","geometry":{"type":"Point","coordinates":[34.879979,36.920394]},"properties":{"name":"Tarsus","adm0name":"Turkey","adm1name":"Mersin","pop":894318}},{"type":"Feature","geometry":{"type":"Point","coordinates":[35.9333,36.117058]},"properties":{"name":"Samandagi","adm0name":"Turkey","adm1name":"Hatay","pop":93638}},{"type":"Feature","geometry":{"type":"Point","coordinates":[36.17003,36.580414]},"properties":{"name":"\u0130skenderun","adm0name":"Turkey","adm1name":"Hatay","pop":297943}},{"type":"Feature","geometry":{"type":"Point","coordinates":[35.833048,40.65368]},"properties":{"name":"Amasya","adm0name":"Turkey","adm1name":"Amasya","pop":82896}},{"type":"Feature","geometry":{"type":"Point","coordinates":[37.869926,41.000429]},"properties":{"name":"Ordu","adm0name":"Turkey","adm1name":"Ordu","pop":155117}},{"type":"Feature","geometry":{"type":"Point","coordinates":[37.03499,39.745415]},"properties":{"name":"Sivas","adm0name":"Turkey","adm1name":"Sivas","pop":264022}},{"type":"Feature","geometry":{"type":"Point","coordinates":[35.906893,41.568172]},"properties":{"name":"Bafra","adm0name":"Turkey","adm1name":"Samsun","pop":97452}},{"type":"Feature","geometry":{"type":"Point","coordinates":[41.290027,39.920392]},"properties":{"name":"Erzurum","adm0name":"Turkey","adm1name":"Erzurum","pop":420691}},{"type":"Feature","geometry":{"type":"Point","coordinates":[39.492773,39.75265]},"properties":{"name":"Erzincan","adm0name":"Turkey","adm1name":"Erzincan","pop":129407}},{"type":"Feature","geometry":{"type":"Point","coordinates":[43.051315,39.719835]},"properties":{"name":"A\u011fr\u0131","adm0name":"Turkey","adm1name":"Agri","pop":87854}},{"type":"Feature","geometry":{"type":"Point","coordinates":[40.23004,37.920436]},"properties":{"name":"Diyarbak\u0131r","adm0name":"Turkey","adm1name":"Diyarbakir","pop":644763}},{"type":"Feature","geometry":{"type":"Point","coordinates":[41.49694,38.749016]},"properties":{"name":"Mu\u015f","adm0name":"Turkey","adm1name":"Mus","pop":82536}},{"type":"Feature","geometry":{"type":"Point","coordinates":[34.051658,37.506275]},"properties":{"name":"Ere\u011fli","adm0name":"Turkey","adm1name":"Konya","pop":92117}},{"type":"Feature","geometry":{"type":"Point","coordinates":[33.215016,37.18154]},"properties":{"name":"Karaman","adm0name":"Turkey","adm1name":"Karaman","pop":120399}},{"type":"Feature","geometry":{"type":"Point","coordinates":[37.119997,36.720406]},"properties":{"name":"Kilis","adm0name":"Turkey","adm1name":"Gaziantep","pop":82301}},{"type":"Feature","geometry":{"type":"Point","coordinates":[33.529984,39.85037]},"properties":{"name":"K\u0131r\u0131kkale","adm0name":"Turkey","adm1name":"Kinkkale","pop":211138}},{"type":"Feature","geometry":{"type":"Point","coordinates":[43.097462,40.608463]},"properties":{"name":"Kars","adm0name":"Turkey","adm1name":"Kars","pop":77486}},{"type":"Feature","geometry":{"type":"Point","coordinates":[40.742722,37.311507]},"properties":{"name":"Mardin","adm0name":"Turkey","adm1name":"Mardin","pop":71373}},{"type":"Feature","geometry":{"type":"Point","coordinates":[41.140011,37.890412]},"properties":{"name":"Batman","adm0name":"Turkey","adm1name":"Batman","pop":302074}},{"type":"Feature","geometry":{"type":"Point","coordinates":[43.399976,38.49544]},"properties":{"name":"Van","adm0name":"Turkey","adm1name":"Van","pop":371713}},{"type":"Feature","geometry":{"type":"Point","coordinates":[35.823591,33.125664]},"properties":{"name":"Al Qunaytirah","adm0name":"Syria","adm1name":"Golan","pop":4318}},{"type":"Feature","geometry":{"type":"Point","coordinates":[43.962836,26.366387]},"properties":{"name":"Buraydah","adm0name":"Saudi Arabia","adm1name":"Al Quassim","pop":398581}},{"type":"Feature","geometry":{"type":"Point","coordinates":[41.70008,27.523577]},"properties":{"name":"Hail","adm0name":"Saudi Arabia","adm1name":"Ha'il","pop":385257}},{"type":"Feature","geometry":{"type":"Point","coordinates":[41.02069,30.990006]},"properties":{"name":"Arar","adm0name":"Saudi Arabia","adm1name":"Al Hudud ash Shamaliyah","pop":222016}},{"type":"Feature","geometry":{"type":"Point","coordinates":[43.494802,29.620219]},"properties":{"name":"Rafha","adm0name":"Saudi Arabia","adm1name":"Al Hudud ash Shamaliyah","pop":64755}},{"type":"Feature","geometry":{"type":"Point","coordinates":[47.312037,24.155566]},"properties":{"name":"Al Kharj","adm0name":"Saudi Arabia","adm1name":"Ar Riyad","pop":298428}},{"type":"Feature","geometry":{"type":"Point","coordinates":[50.097724,26.430138]},"properties":{"name":"Dammam","adm0name":"Saudi Arabia","adm1name":"Ash Sharqiyah","pop":2054710}},{"type":"Feature","geometry":{"type":"Point","coordinates":[45.960078,28.433651]},"properties":{"name":"Hafar al Batin","adm0name":"Saudi Arabia","adm1name":"Ash Sharqiyah","pop":249194}},{"type":"Feature","geometry":{"type":"Point","coordinates":[49.646003,27.004642]},"properties":{"name":"Al Jubayl","adm0name":"Saudi Arabia","adm1name":"Ash Sharqiyah","pop":237274}},{"type":"Feature","geometry":{"type":"Point","coordinates":[47.624369,42.874733]},"properties":{"name":"Kaspiysk","adm0name":"Russia","adm1name":"Dagestan","pop":81752}},{"type":"Feature","geometry":{"type":"Point","coordinates":[48.277404,42.057806]},"properties":{"name":"Derbent","adm0name":"Russia","adm1name":"Dagestan","pop":105965}},{"type":"Feature","geometry":{"type":"Point","coordinates":[47.113031,42.833495]},"properties":{"name":"Buynaksk","adm0name":"Russia","adm1name":"Dagestan","pop":75800}},{"type":"Feature","geometry":{"type":"Point","coordinates":[35.904154,33.850116]},"properties":{"name":"Zahl\u00e9","adm0name":"Lebanon","adm1name":"Mount Lebanon","pop":78145}},{"type":"Feature","geometry":{"type":"Point","coordinates":[35.077693,29.526995]},"properties":{"name":"Al Aqabah","adm0name":"Jordan","adm1name":"Aqaba","pop":95048}},{"type":"Feature","geometry":{"type":"Point","coordinates":[35.704735,31.185111]},"properties":{"name":"Al Karak","adm0name":"Jordan","adm1name":"Karak","pop":80062}},{"type":"Feature","geometry":{"type":"Point","coordinates":[33.933319,26.733729]},"properties":{"name":"Bur Safaga","adm0name":"Egypt","adm1name":"Al Bahr al Ahmar","pop":32944}},{"type":"Feature","geometry":{"type":"Point","coordinates":[33.614797,28.239389]},"properties":{"name":"El Tur","adm0name":"Egypt","adm1name":"Janub Sina'","pop":27628}},{"type":"Feature","geometry":{"type":"Point","coordinates":[33.800562,31.124882]},"properties":{"name":"El Arish","adm0name":"Egypt","adm1name":"Shamal Sina'","pop":178651}},{"type":"Feature","geometry":{"type":"Point","coordinates":[41.671606,42.155656]},"properties":{"name":"Poti","adm0name":"Georgia","adm1name":"Samegrelo-Zemo Svaneti","pop":47149}},{"type":"Feature","geometry":{"type":"Point","coordinates":[45.050004,41.570368]},"properties":{"name":"Rustavi","adm0name":"Georgia","adm1name":"Kvemo Kartli","pop":157063}},{"type":"Feature","geometry":{"type":"Point","coordinates":[42.687203,37.14454]},"properties":{"name":"Zakho","adm0name":"Iraq","adm1name":"Dihok","pop":134863}},{"type":"Feature","geometry":{"type":"Point","coordinates":[42.44975,36.375982]},"properties":{"name":"Tall Afar","adm0name":"Iraq","adm1name":"Ninawa","pop":144465}},{"type":"Feature","geometry":{"type":"Point","coordinates":[43.676962,34.597047]},"properties":{"name":"Tikrit","adm0name":"Iraq","adm1name":"Sala ad-Din","pop":56591}},{"type":"Feature","geometry":{"type":"Point","coordinates":[34.978079,32.822357]},"properties":{"name":"Haifa","adm0name":"Israel","adm1name":"Haifa","pop":1011000}},{"type":"Feature","geometry":{"type":"Point","coordinates":[35.295509,32.703984]},"properties":{"name":"Nazareth","adm0name":"Israel","adm1name":"HaZafon","pop":151459}},{"type":"Feature","geometry":{"type":"Point","coordinates":[44.024486,32.61492]},"properties":{"name":"Karbala","adm0name":"Iraq","adm1name":"Karbala'","pop":510692}},{"type":"Feature","geometry":{"type":"Point","coordinates":[51.859718,32.011494]},"properties":{"name":"Qomsheh","adm0name":"Iran","adm1name":"Esfahan","pop":118301}},{"type":"Feature","geometry":{"type":"Point","coordinates":[51.579993,33.980418]},"properties":{"name":"Kashan","adm0name":"Iran","adm1name":"Esfahan","pop":250000}},{"type":"Feature","geometry":{"type":"Point","coordinates":[51.469974,32.700419]},"properties":{"name":"Khomeini Shahr","adm0name":"Iran","adm1name":"Esfahan","pop":437138}},{"type":"Feature","geometry":{"type":"Point","coordinates":[53.671494,28.971835]},"properties":{"name":"Fasa","adm0name":"Iran","adm1name":"Fars","pop":124458}},{"type":"Feature","geometry":{"type":"Point","coordinates":[55.171454,37.251821]},"properties":{"name":"Gonbad-e Kavus","adm0name":"Iran","adm1name":"Golestan","pop":159982}},{"type":"Feature","geometry":{"type":"Point","coordinates":[54.480023,36.830348]},"properties":{"name":"Gorgan","adm0name":"Iran","adm1name":"Golestan","pop":281023}},{"type":"Feature","geometry":{"type":"Point","coordinates":[52.363305,36.471325]},"properties":{"name":"Amol","adm0name":"Iran","adm1name":"Mazandaran","pop":221650}},{"type":"Feature","geometry":{"type":"Point","coordinates":[53.100004,36.55039]},"properties":{"name":"Sari","adm0name":"Iran","adm1name":"Mazandaran","pop":271467}},{"type":"Feature","geometry":{"type":"Point","coordinates":[53.374302,35.554792]},"properties":{"name":"Semnan","adm0name":"Iran","adm1name":"Semnan","pop":124826}},{"type":"Feature","geometry":{"type":"Point","coordinates":[50.968059,35.802305]},"properties":{"name":"Karaj","adm0name":"Iran","adm1name":"Tehran","pop":1423000}},{"type":"Feature","geometry":{"type":"Point","coordinates":[50.261469,30.581814]},"properties":{"name":"Behbehan","adm0name":"Iran","adm1name":"Khuzestan","pop":85707}},{"type":"Feature","geometry":{"type":"Point","coordinates":[48.470002,32.380387]},"properties":{"name":"Dezful","adm0name":"Iran","adm1name":"Khuzestan","pop":315482}},{"type":"Feature","geometry":{"type":"Point","coordinates":[48.35001,33.480423]},"properties":{"name":"Khorramabad","adm0name":"Iran","adm1name":"Lorestan","pop":375198}},{"type":"Feature","geometry":{"type":"Point","coordinates":[46.430024,33.630414]},"properties":{"name":"Ilam","adm0name":"Iran","adm1name":"Ilam","pop":152894}},{"type":"Feature","geometry":{"type":"Point","coordinates":[45.280275,31.309858]},"properties":{"name":"As Samawah","adm0name":"Iraq","adm1name":"Al-Muthannia","pop":174978}},{"type":"Feature","geometry":{"type":"Point","coordinates":[46.267553,31.042949]},"properties":{"name":"An Nasiriyah","adm0name":"Iraq","adm1name":"Dhi-Qar","pop":451547}},{"type":"Feature","geometry":{"type":"Point","coordinates":[47.151168,31.841608]},"properties":{"name":"Al Amarah","adm0name":"Iraq","adm1name":"Maysan","pop":345007}},{"type":"Feature","geometry":{"type":"Point","coordinates":[45.83037,32.490716]},"properties":{"name":"Al Kut","adm0name":"Iraq","adm1name":"Wasit","pop":321521}},{"type":"Feature","geometry":{"type":"Point","coordinates":[50.331439,35.021827]},"properties":{"name":"Saveh","adm0name":"Iran","adm1name":"Markazi","pop":175533}},{"type":"Feature","geometry":{"type":"Point","coordinates":[49.700005,34.080412]},"properties":{"name":"Arak","adm0name":"Iran","adm1name":"Markazi","pop":503647}},{"type":"Feature","geometry":{"type":"Point","coordinates":[45.720041,36.770377]},"properties":{"name":"Mahabad","adm0name":"Iran","adm1name":"West Azarbaijan","pop":162434}},{"type":"Feature","geometry":{"type":"Point","coordinates":[44.970009,38.530399]},"properties":{"name":"Khvoy","adm0name":"Iran","adm1name":"West Azarbaijan","pop":202728}},{"type":"Feature","geometry":{"type":"Point","coordinates":[46.220011,37.420389]},"properties":{"name":"Maragheh","adm0name":"Iran","adm1name":"East Azarbaijan","pop":151385}},{"type":"Feature","geometry":{"type":"Point","coordinates":[45.577207,34.512375]},"properties":{"name":"Qasr-e Shirin","adm0name":"Iran","adm1name":"Kermanshah","pop":11202}},{"type":"Feature","geometry":{"type":"Point","coordinates":[47.593674,35.874075]},"properties":{"name":"Bijar","adm0name":"Iran","adm1name":"Kordestan","pop":53871}},{"type":"Feature","geometry":{"type":"Point","coordinates":[45.43086,35.561278]},"properties":{"name":"As Sulaymaniyah","adm0name":"Iraq","adm1name":"As-Sulaymaniyah","pop":723170}},{"type":"Feature","geometry":{"type":"Point","coordinates":[44.657263,33.747642]},"properties":{"name":"Baqubah","adm0name":"Iraq","adm1name":"Diyala","pop":299479}},{"type":"Feature","geometry":{"type":"Point","coordinates":[40.284455,33.03846]},"properties":{"name":"Ar Rutbah","adm0name":"Iraq","adm1name":"Al-Anbar","pop":22370}},{"type":"Feature","geometry":{"type":"Point","coordinates":[43.777266,33.347666]},"properties":{"name":"Al Fallujah","adm0name":"Iraq","adm1name":"Al-Anbar","pop":231819}},{"type":"Feature","geometry":{"type":"Point","coordinates":[44.421722,32.472138]},"properties":{"name":"Al Hillah","adm0name":"Iraq","adm1name":"Babil","pop":594605}},{"type":"Feature","geometry":{"type":"Point","coordinates":[48.920259,39.932303]},"properties":{"name":"\u015eirvan","adm0name":"Azerbaijan","adm1name":"?li Bayramli","pop":70684}},{"type":"Feature","geometry":{"type":"Point","coordinates":[47.74059,40.653422]},"properties":{"name":"Goycay","adm0name":"Azerbaijan","adm1name":"G\u00f6y\u00e7ay","pop":35348}},{"type":"Feature","geometry":{"type":"Point","coordinates":[48.851064,38.754003]},"properties":{"name":"Lankaran","adm0name":"Azerbaijan","adm1name":"Astara","pop":60180}},{"type":"Feature","geometry":{"type":"Point","coordinates":[47.170547,41.192329]},"properties":{"name":"Saki","adm0name":"Azerbaijan","adm1name":"S?ki","pop":64968}},{"type":"Feature","geometry":{"type":"Point","coordinates":[46.751968,39.815643]},"properties":{"name":"Stepanakert","adm0name":"Azerbaijan","adm1name":"Xocali","pop":57473}},{"type":"Feature","geometry":{"type":"Point","coordinates":[46.414986,39.201521]},"properties":{"name":"Kapan","adm0name":"Azerbaijan","adm1name":"Z?ngilan","pop":42288}},{"type":"Feature","geometry":{"type":"Point","coordinates":[45.412205,39.20922]},"properties":{"name":"Naxcivan","adm0name":"Azerbaijan","adm1name":"Nax\u00e7ivan","pop":94788}},{"type":"Feature","geometry":{"type":"Point","coordinates":[33.033322,34.675414]},"properties":{"name":"Lemosos","adm0name":"Cyprus","adm1name":"Limassol","pop":154000}},{"type":"Feature","geometry":{"type":"Point","coordinates":[35.254427,32.221482]},"properties":{"name":"Nablus","adm0name":"Palestine","adm1name":null,"pop":215981}},{"type":"Feature","geometry":{"type":"Point","coordinates":[39.719994,40.979991]},"properties":{"name":"Trabzon","adm0name":"Turkey","adm1name":"Trabzon","pop":764714}},{"type":"Feature","geometry":{"type":"Point","coordinates":[38.794986,37.169991]},"properties":{"name":"\u015eanl\u0131urfa","adm0name":"Turkey","adm1name":"Sanliurfa","pop":449549}},{"type":"Feature","geometry":{"type":"Point","coordinates":[49.585593,25.348749]},"properties":{"name":"Hofuf","adm0name":"Saudi Arabia","adm1name":"Ash Sharqiyah","pop":637389}},{"type":"Feature","geometry":{"type":"Point","coordinates":[47.499984,42.980024]},"properties":{"name":"Makhachkala","adm0name":"Russia","adm1name":"Dagestan","pop":554981}},{"type":"Feature","geometry":{"type":"Point","coordinates":[41.630007,41.600005]},"properties":{"name":"Batumi","adm0name":"Georgia","adm1name":"Ajaria","pop":155542}},{"type":"Feature","geometry":{"type":"Point","coordinates":[44.006675,36.18099]},"properties":{"name":"Irbil","adm0name":"Iraq","adm1name":"Arbil","pop":926000}},{"type":"Feature","geometry":{"type":"Point","coordinates":[35.49002,38.73496]},"properties":{"name":"Kayseri","adm0name":"Turkey","adm1name":"Kayseri","pop":592840}},{"type":"Feature","geometry":{"type":"Point","coordinates":[37.383048,37.07693]},"properties":{"name":"Gaziantep","adm0name":"Turkey","adm1name":"Gaziantep","pop":1044000}},{"type":"Feature","geometry":{"type":"Point","coordinates":[36.718076,34.731905]},"properties":{"name":"Homs","adm0name":"Syria","adm1name":"Homs (Hims)","pop":1005000}},{"type":"Feature","geometry":{"type":"Point","coordinates":[36.463552,26.232416]},"properties":{"name":"Al Wajh","adm0name":"Saudi Arabia","adm1name":"Tabuk","pop":43237}},{"type":"Feature","geometry":{"type":"Point","coordinates":[33.830017,27.230003]},"properties":{"name":"Hurghada","adm0name":"Egypt","adm1name":"Al Bahr al Ahmar","pop":157204}},{"type":"Feature","geometry":{"type":"Point","coordinates":[35.831661,34.438267]},"properties":{"name":"\u1e6car\u0101bulus","adm0name":"Lebanon","adm1name":"North Lebanon","pop":530000}},{"type":"Feature","geometry":{"type":"Point","coordinates":[50.830013,28.919978]},"properties":{"name":"Bandar-e Bushehr","adm0name":"Iran","adm1name":"Bushehr","pop":169060}},{"type":"Feature","geometry":{"type":"Point","coordinates":[48.279678,30.330744]},"properties":{"name":"Abadan","adm0name":"Iran","adm1name":"Khuzestan","pop":370180}},{"type":"Feature","geometry":{"type":"Point","coordinates":[48.300039,38.250003]},"properties":{"name":"Ardabil","adm0name":"Iran","adm1name":"Ardebil","pop":414603}},{"type":"Feature","geometry":{"type":"Point","coordinates":[50.94806,34.651961]},"properties":{"name":"Qom","adm0name":"Iran","adm1name":"Qom","pop":973000}},{"type":"Feature","geometry":{"type":"Point","coordinates":[49.999986,36.27002]},"properties":{"name":"Qazvin","adm0name":"Iran","adm1name":"Qazvin","pop":464551}},{"type":"Feature","geometry":{"type":"Point","coordinates":[47.058065,34.381952]},"properties":{"name":"Kermanshah","adm0name":"Iran","adm1name":"Kermanshah","pop":828313}},{"type":"Feature","geometry":{"type":"Point","coordinates":[49.629983,37.299983]},"properties":{"name":"Rasht","adm0name":"Iran","adm1name":"Gilan","pop":594590}},{"type":"Feature","geometry":{"type":"Point","coordinates":[52.969676,40.023047]},"properties":{"name":"T\u00fcrkmenba\u015fy","adm0name":"Turkmenistan","adm1name":"Balkan","pop":68292}},{"type":"Feature","geometry":{"type":"Point","coordinates":[36.343663,41.279998]},"properties":{"name":"Samsun","adm0name":"Turkey","adm1name":"Samsun","pop":609339}},{"type":"Feature","geometry":{"type":"Point","coordinates":[35.318058,36.996935]},"properties":{"name":"Adana","adm0name":"Turkey","adm1name":"Adana","pop":1293000}},{"type":"Feature","geometry":{"type":"Point","coordinates":[39.578057,24.501935]},"properties":{"name":"Medina","adm0name":"Saudi Arabia","adm1name":"Al Madinah","pop":1010000}},{"type":"Feature","geometry":{"type":"Point","coordinates":[36.554967,28.383835]},"properties":{"name":"Tabuk","adm0name":"Saudi Arabia","adm1name":"Tabuk","pop":547957}},{"type":"Feature","geometry":{"type":"Point","coordinates":[51.532968,25.286556]},"properties":{"name":"Doha","adm0name":"Qatar","adm1name":"Ad Dawhah","pop":1450000}},{"type":"Feature","geometry":{"type":"Point","coordinates":[44.392267,35.472239]},"properties":{"name":"Kirkuk","adm0name":"Iraq","adm1name":"At-Ta'mim","pop":601433}},{"type":"Feature","geometry":{"type":"Point","coordinates":[43.143059,36.346948]},"properties":{"name":"Mosul","adm0name":"Iraq","adm1name":"Ninawa","pop":1316000}},{"type":"Feature","geometry":{"type":"Point","coordinates":[44.335371,32.000332]},"properties":{"name":"Najaf","adm0name":"Iraq","adm1name":"An-Najaf","pop":665552}},{"type":"Feature","geometry":{"type":"Point","coordinates":[54.370004,31.920053]},"properties":{"name":"Yazd","adm0name":"Iran","adm1name":"Yazd","pop":477905}},{"type":"Feature","geometry":{"type":"Point","coordinates":[48.718067,31.281934]},"properties":{"name":"Ahvaz","adm0name":"Iran","adm1name":"Khuzestan","pop":996000}},{"type":"Feature","geometry":{"type":"Point","coordinates":[47.811611,30.51547]},"properties":{"name":"Basra","adm0name":"Iraq","adm1name":"Al-Basrah","pop":870000}},{"type":"Feature","geometry":{"type":"Point","coordinates":[48.515013,34.796027]},"properties":{"name":"Hamadan","adm0name":"Iran","adm1name":"Hamadan","pop":528256}},{"type":"Feature","geometry":{"type":"Point","coordinates":[46.2993,38.088237]},"properties":{"name":"Tabriz","adm0name":"Iran","adm1name":"East Azarbaijan","pop":1413000}},{"type":"Feature","geometry":{"type":"Point","coordinates":[34.445019,31.529999]},"properties":{"name":"Gaza City","adm0name":"Palestine","adm1name":null,"pop":505700}},{"type":"Feature","geometry":{"type":"Point","coordinates":[50.583052,26.236136]},"properties":{"name":"Manama","adm0name":"Bahrain","adm1name":null,"pop":563920}},{"type":"Feature","geometry":{"type":"Point","coordinates":[54.366593,24.466684]},"properties":{"name":"Abu Dhabi","adm0name":"United Arab Emirates","adm1name":"Abu Dhabi","pop":603492}},{"type":"Feature","geometry":{"type":"Point","coordinates":[35.931354,31.951971]},"properties":{"name":"Amman","adm0name":"Jordan","adm1name":"Amman","pop":1060000}},{"type":"Feature","geometry":{"type":"Point","coordinates":[35.507762,33.873921]},"properties":{"name":"Beirut","adm0name":"Lebanon","adm1name":"Beirut","pop":1846000}},{"type":"Feature","geometry":{"type":"Point","coordinates":[44.78885,41.726956]},"properties":{"name":"Tbilisi","adm0name":"Georgia","adm1name":"Tbilisi","pop":1100000}},{"type":"Feature","geometry":{"type":"Point","coordinates":[51.698092,32.701951]},"properties":{"name":"Isfahan","adm0name":"Iran","adm1name":"Esfahan","pop":1628000}},{"type":"Feature","geometry":{"type":"Point","coordinates":[52.568065,29.631906]},"properties":{"name":"Shiraz","adm0name":"Iran","adm1name":"Fars","pop":1240000}},{"type":"Feature","geometry":{"type":"Point","coordinates":[44.511606,40.183097]},"properties":{"name":"Yerevan","adm0name":"Armenia","adm1name":"Erevan","pop":1102000}},{"type":"Feature","geometry":{"type":"Point","coordinates":[49.860271,40.397218]},"properties":{"name":"Baku","adm0name":"Azerbaijan","adm1name":"Baki","pop":2122300}},{"type":"Feature","geometry":{"type":"Point","coordinates":[35.206626,31.778408]},"properties":{"name":"Jerusalem","adm0name":"Israel","adm1name":"Jerusalem","pop":1029300}},{"type":"Feature","geometry":{"type":"Point","coordinates":[33.366635,35.166677]},"properties":{"name":"Nicosia","adm0name":"Cyprus","adm1name":null,"pop":224300}},{"type":"Feature","geometry":{"type":"Point","coordinates":[37.168074,36.231917]},"properties":{"name":"Aleppo","adm0name":"Syria","adm1name":"Aleppo (Halab)","pop":2738000}},{"type":"Feature","geometry":{"type":"Point","coordinates":[36.29805,33.50198]},"properties":{"name":"Damascus","adm0name":"Syria","adm1name":"Damascus","pop":2466000}},{"type":"Feature","geometry":{"type":"Point","coordinates":[47.976355,29.371664]},"properties":{"name":"Kuwait City","adm0name":"Kuwait","adm1name":"Al Kuwayt","pop":2063000}},{"type":"Feature","geometry":{"type":"Point","coordinates":[34.768066,32.081937]},"properties":{"name":"Tel Aviv","adm0name":"Israel","adm1name":"Tel Aviv","pop":3112000}},{"type":"Feature","geometry":{"type":"Point","coordinates":[55.286946,25.214912]},"properties":{"name":"Dubai","adm0name":"United Arab Emirates","adm1name":"Dubay","pop":1379000}},{"type":"Feature","geometry":{"type":"Point","coordinates":[44.391923,33.340594]},"properties":{"name":"Baghdad","adm0name":"Iraq","adm1name":"Baghdad","pop":5054000}},{"type":"Feature","geometry":{"type":"Point","coordinates":[51.422398,35.673889]},"properties":{"name":"Tehran","adm0name":"Iran","adm1name":"Tehran","pop":7873000}},{"type":"Feature","geometry":{"type":"Point","coordinates":[46.720487,24.634497]},"properties":{"name":"Riyadh","adm0name":"Saudi Arabia","adm1name":"Ar Riyad","pop":4465000}}]}